[{"OBJECT_NAME":"COSMOS 2592","OBJECT_ID":"2025-182B","EPOCH":"2026-03-05T15:06:51.282144","MEAN_MOTION":15.96382533,"ECCENTRICITY":0.000717,"INCLINATION":96.5906,"RA_OF_ASC_NODE":357.9096,"ARG_OF_PERICENTER":168.5536,"MEAN_ANOMALY":191.5907,"EPHEMERIS_TYPE":0,"CLASSIFICATION_TYPE":"U","NORAD_CAT_ID":65268,"ELEMENT_SET_NO":999,"REV_AT_EPOCH":3117,"BSTAR":1.1848e-5,"MEAN_MOTION_DOT":4.342e-5,"MEAN_MOTION_DDOT":1.8609e-6},{"OBJECT_NAME":"COSMOS 2593","OBJECT_ID":"2025-182C","EPOCH":"2026-03-05T13:59:10.158144","MEAN_MOTION":15.96412483,"ECCENTRICITY":0.0007309,"INCLINATION":96.5882,"RA_OF_ASC_NODE":357.8369,"ARG_OF_PERICENTER":166.2302,"MEAN_ANOMALY":193.9177,"EPHEMERIS_TYPE":0,"CLASSIFICATION_TYPE":"U","NORAD_CAT_ID":65269,"ELEMENT_SET_NO":999,"REV_AT_EPOCH":3116,"BSTAR":5.8016e-5,"MEAN_MOTION_DOT":0.00023585,"MEAN_MOTION_DDOT":2.0678e-6},{"OBJECT_NAME":"COSMOS 2594","OBJECT_ID":"2025-182D","EPOCH":"2026-03-06T03:54:06.543936","MEAN_MOTION":15.96514018,"ECCENTRICITY":0.0007121,"INCLINATION":96.5909,"RA_OF_ASC_NODE":358.374,"ARG_OF_PERICENTER":166.0438,"MEAN_ANOMALY":194.1039,"EPHEMERIS_TYPE":0,"CLASSIFICATION_TYPE":"U","NORAD_CAT_ID":65270,"ELEMENT_SET_NO":999,"REV_AT_EPOCH":3127,"BSTAR":0.00025822261,"MEAN_MOTION_DOT":0.00107567,"MEAN_MOTION_DDOT":6.280607e-6},{"OBJECT_NAME":"ISS OBJECT XK","OBJECT_ID":"1998-067XK","EPOCH":"2026-03-06T08:28:40.494144","MEAN_MOTION":16.12476132,"ECCENTRICITY":0.00043345,"INCLINATION":51.6138,"RA_OF_ASC_NODE":63.9395,"ARG_OF_PERICENTER":87.4881,"MEAN_ANOMALY":272.663,"EPHEMERIS_TYPE":0,"CLASSIFICATION_TYPE":"U","NORAD_CAT_ID":65731,"ELEMENT_SET_NO":999,"REV_AT_EPOCH":2636,"BSTAR":0.0013181176,"MEAN_MOTION_DOT":0.01473506,"MEAN_MOTION_DDOT":0.0015937231},{"OBJECT_NAME":"CZ-4B R/B","OBJECT_ID":"2025-289B","EPOCH":"2026-03-06T02:00:37.929312","MEAN_MOTION":16.47343359,"ECCENTRICITY":0.0010186,"INCLINATION":97.4928,"RA_OF_ASC_NODE":143.7033,"ARG_OF_PERICENTER":27.6912,"MEAN_ANOMALY":332.4932,"EPHEMERIS_TYPE":0,"CLASSIFICATION_TYPE":"U","NORAD_CAT_ID":66989,"ELEMENT_SET_NO":999,"REV_AT_EPOCH":1377,"BSTAR":0.00018295,"MEAN_MOTION_DOT":0.10603572,"MEAN_MOTION_DDOT":2.5591e-6},{"OBJECT_NAME":"STARLINK-36618","OBJECT_ID":"2026-033AC","EPOCH":"2026-03-06T20:00:00.999360","MEAN_MOTION":15.91600518,"ECCENTRICITY":0.0001787,"INCLINATION":42.9834,"RA_OF_ASC_NODE":286.8013,"ARG_OF_PERICENTER":289.6581,"MEAN_ANOMALY":116.363,"EPHEMERIS_TYPE":0,"CLASSIFICATION_TYPE":"U","NORAD_CAT_ID":67847,"ELEMENT_SET_NO":999,"REV_AT_EPOCH":420,"BSTAR":-0.00030711,"MEAN_MOTION_DOT":-0.00106314,"MEAN_MOTION_DDOT":1.1962e-5},{"OBJECT_NAME":"STARLINK-36818","OBJECT_ID":"2026-035A","EPOCH":"2026-03-06T20:00:00.999360","MEAN_MOTION":15.94069964,"ECCENTRICITY":0.0001115,"INCLINATION":97.2751,"RA_OF_ASC_NODE":357.9525,"ARG_OF_PERICENTER":86.6976,"MEAN_ANOMALY":309.2929,"EPHEMERIS_TYPE":0,"CLASSIFICATION_TYPE":"U","NORAD_CAT_ID":67879,"ELEMENT_SET_NO":999,"REV_AT_EPOCH":329,"BSTAR":-0.0031584,"MEAN_MOTION_DOT":-0.01153345,"MEAN_MOTION_DDOT":0.00040053},{"OBJECT_NAME":"STARLINK-36821","OBJECT_ID":"2026-035B","EPOCH":"2026-03-06T20:00:00.999360","MEAN_MOTION":15.9418218,"ECCENTRICITY":0.0001122,"INCLINATION":97.2747,"RA_OF_ASC_NODE":357.9558,"ARG_OF_PERICENTER":83.7195,"MEAN_ANOMALY":319.8999,"EPHEMERIS_TYPE":0,"CLASSIFICATION_TYPE":"U","NORAD_CAT_ID":67880,"ELEMENT_SET_NO":999,"REV_AT_EPOCH":329,"BSTAR":-0.0031837,"MEAN_MOTION_DOT":-0.01169312,"MEAN_MOTION_DDOT":0.00041133},{"OBJECT_NAME":"STARLINK-36808","OBJECT_ID":"2026-035C","EPOCH":"2026-03-06T20:00:00.999360","MEAN_MOTION":15.94128474,"ECCENTRICITY":0.0001119,"INCLINATION":97.2747,"RA_OF_ASC_NODE":357.9536,"ARG_OF_PERICENTER":79.6715,"MEAN_ANOMALY":319.3398,"EPHEMERIS_TYPE":0,"CLASSIFICATION_TYPE":"U","NORAD_CAT_ID":67881,"ELEMENT_SET_NO":999,"REV_AT_EPOCH":329,"BSTAR":-0.003093,"MEAN_MOTION_DOT":-0.01133125,"MEAN_MOTION_DDOT":0.00038785},{"OBJECT_NAME":"STARLINK-36817","OBJECT_ID":"2026-035D","EPOCH":"2026-03-06T20:00:00.999360","MEAN_MOTION":15.94268004,"ECCENTRICITY":0.0001094,"INCLINATION":97.2736,"RA_OF_ASC_NODE":357.959,"ARG_OF_PERICENTER":82.02,"MEAN_ANOMALY":330.6311,"EPHEMERIS_TYPE":0,"CLASSIFICATION_TYPE":"U","NORAD_CAT_ID":67882,"ELEMENT_SET_NO":999,"REV_AT_EPOCH":329,"BSTAR":-0.0032125,"MEAN_MOTION_DOT":-0.01185082,"MEAN_MOTION_DDOT":0.00042204},{"OBJECT_NAME":"STARLINK-36856","OBJECT_ID":"2026-035E","EPOCH":"2026-03-06T20:00:00.999360","MEAN_MOTION":15.9422234,"ECCENTRICITY":0.0001127,"INCLINATION":97.2742,"RA_OF_ASC_NODE":357.9576,"ARG_OF_PERICENTER":82.6919,"MEAN_ANOMALY":325.7099,"EPHEMERIS_TYPE":0,"CLASSIFICATION_TYPE":"U","NORAD_CAT_ID":67883,"ELEMENT_SET_NO":999,"REV_AT_EPOCH":329,"BSTAR":-0.0032116,"MEAN_MOTION_DOT":-0.01181968,"MEAN_MOTION_DDOT":0.00041979},{"OBJECT_NAME":"STARLINK-36842","OBJECT_ID":"2026-035F","EPOCH":"2026-03-06T20:00:00.999360","MEAN_MOTION":15.94319507,"ECCENTRICITY":0.0001182,"INCLINATION":97.2735,"RA_OF_ASC_NODE":357.9608,"ARG_OF_PERICENTER":71.4947,"MEAN_ANOMALY":345.1615,"EPHEMERIS_TYPE":0,"CLASSIFICATION_TYPE":"U","NORAD_CAT_ID":67884,"ELEMENT_SET_NO":999,"REV_AT_EPOCH":329,"BSTAR":-0.0032071,"MEAN_MOTION_DOT":-0.01186334,"MEAN_MOTION_DDOT":0.00042309},{"OBJECT_NAME":"STARLINK-36826","OBJECT_ID":"2026-035G","EPOCH":"2026-03-06T20:00:00.999360","MEAN_MOTION":15.943836,"ECCENTRICITY":0.0001184,"INCLINATION":97.2734,"RA_OF_ASC_NODE":357.9623,"ARG_OF_PERICENTER":81.7172,"MEAN_ANOMALY":338.2504,"EPHEMERIS_TYPE":0,"CLASSIFICATION_TYPE":"U","NORAD_CAT_ID":67885,"ELEMENT_SET_NO":999,"REV_AT_EPOCH":329,"BSTAR":-0.0031947,"MEAN_MOTION_DOT":-0.01185728,"MEAN_MOTION_DDOT":0.00042297},{"OBJECT_NAME":"STARLINK-36390","OBJECT_ID":"2026-035H","EPOCH":"2026-03-06T20:00:00.999360","MEAN_MOTION":15.94421971,"ECCENTRICITY":0.0001121,"INCLINATION":97.273,"RA_OF_ASC_NODE":357.9641,"ARG_OF_PERICENTER":78.1994,"MEAN_ANOMALY":346.5151,"EPHEMERIS_TYPE":0,"CLASSIFICATION_TYPE":"U","NORAD_CAT_ID":67886,"ELEMENT_SET_NO":999,"REV_AT_EPOCH":334,"BSTAR":-0.0031979,"MEAN_MOTION_DOT":-0.01189289,"MEAN_MOTION_DDOT":0.00042549},{"OBJECT_NAME":"STARLINK-36368","OBJECT_ID":"2026-035J","EPOCH":"2026-03-06T20:00:00.999360","MEAN_MOTION":15.94463633,"ECCENTRICITY":0.0001234,"INCLINATION":97.2728,"RA_OF_ASC_NODE":357.9658,"ARG_OF_PERICENTER":86.2889,"MEAN_ANOMALY":342.9566,"EPHEMERIS_TYPE":0,"CLASSIFICATION_TYPE":"U","NORAD_CAT_ID":67887,"ELEMENT_SET_NO":999,"REV_AT_EPOCH":329,"BSTAR":-0.0031734,"MEAN_MOTION_DOT":-0.01182876,"MEAN_MOTION_DDOT":0.00042143},{"OBJECT_NAME":"STARLINK-36801","OBJECT_ID":"2026-035K","EPOCH":"2026-03-06T20:00:00.999360","MEAN_MOTION":15.94506967,"ECCENTRICITY":0.0001222,"INCLINATION":97.2725,"RA_OF_ASC_NODE":357.9677,"ARG_OF_PERICENTER":90.6564,"MEAN_ANOMALY":342.9765,"EPHEMERIS_TYPE":0,"CLASSIFICATION_TYPE":"U","NORAD_CAT_ID":67888,"ELEMENT_SET_NO":999,"REV_AT_EPOCH":329,"BSTAR":-0.0031449,"MEAN_MOTION_DOT":-0.01174987,"MEAN_MOTION_DDOT":0.00041643}]
