COSMOS 2592             
1 65268U 25182B   26064.62976021  .00004342  18609-5  11848-4 0  9994
2 65268  96.5906 357.9096 0007170 168.5536 191.5907 15.96382533 31171
COSMOS 2593             
1 65269U 25182C   26064.58275646  .00023585  20678-5  58016-4 0  9992
2 65269  96.5882 357.8369 0007309 166.2302 193.9177 15.96412483 31169
COSMOS 2594             
1 65270U 25182D   26065.16257574  .00107567  62806-5  25822-3 0  9999
2 65270  96.5909 358.3740 0007121 166.0438 194.1039 15.96514018 31279
ISS OBJECT XK           
1 65731U 98067XK  26065.35324646  .01473506  15937-2  13181-2 0  9993
2 65731  51.6138  63.9395 0004334  87.4881 272.6630 16.12476132 26369
CZ-4B R/B               
1 66989U 25289B   26065.08377233  .10603572  25591-5  18295-3 0  9995
2 66989  97.4928 143.7033 0010186  27.6912 332.4932 16.47343359 13772
STARLINK-36618          
1 67847U 26033AC  26065.83334490 -.00106314  11962-4 -30711-3 0  9994
2 67847  42.9834 286.8013 0001787 289.6581 116.3630 15.91600518  4206
STARLINK-36818          
1 67879U 26035A   26065.83334490 -.01153345  40053-3 -31584-2 0  9998
2 67879  97.2751 357.9525 0001115  86.6976 309.2929 15.94069964  3297
STARLINK-36821          
1 67880U 26035B   26065.83334490 -.01169312  41133-3 -31837-2 0  9992
2 67880  97.2747 357.9558 0001122  83.7195 319.8999 15.94182180  3299
STARLINK-36808          
1 67881U 26035C   26065.83334490 -.01133125  38785-3 -30930-2 0  9998
2 67881  97.2747 357.9536 0001119  79.6715 319.3398 15.94128474  3298
STARLINK-36817          
1 67882U 26035D   26065.83334490 -.01185082  42204-3 -32125-2 0  9997
2 67882  97.2736 357.9590 0001094  82.0200 330.6311 15.94268004  3291
STARLINK-36856          
1 67883U 26035E   26065.83334490 -.01181968  41979-3 -32116-2 0  9995
2 67883  97.2742 357.9576 0001127  82.6919 325.7099 15.94222340  3294
STARLINK-36842          
1 67884U 26035F   26065.83334490 -.01186334  42309-3 -32071-2 0  9996
2 67884  97.2735 357.9608 0001182  71.4947 345.1615 15.94319507  3293
STARLINK-36826          
1 67885U 26035G   26065.83334490 -.01185728  42297-3 -31947-2 0  9990
2 67885  97.2734 357.9623 0001184  81.7172 338.2504 15.94383600  3291
STARLINK-36390          
1 67886U 26035H   26065.83334490 -.01189289  42549-3 -31979-2 0  9992
2 67886  97.2730 357.9641 0001121  78.1994 346.5151 15.94421971  3341
STARLINK-36368          
1 67887U 26035J   26065.83334490 -.01182876  42143-3 -31734-2 0  9997
2 67887  97.2728 357.9658 0001234  86.2889 342.9566 15.94463633  3290
STARLINK-36801          
1 67888U 26035K   26065.83334490 -.01174987  41643-3 -31449-2 0  9999
2 67888  97.2725 357.9677 0001222  90.6564 342.9765 15.94506967  3294
